FLOCK 3P-88             
1 41982U 17008AL  17345.88115970  .00001296  00000-0  57014-4 0  9998
2 41982  97.4776  46.7697 0006944 297.4878  62.5653 15.23673623 44523
